GLOBALSTAR M094         
1 39074U 13005C   25036.88965587 -.00000076  00000+0  15381-3 0  9998
2 39074  51.9928 221.8795 0000950  70.5744 289.5226 12.62268187555792
GLOBALSTAR M096         
1 39075U 13005D   25036.90289940 -.00000075  00000+0  15979-3 0  9996
2 39075  52.0062 270.2543 0000801  53.3371 306.7569 12.62268040554714
GLOBALSTAR M078         
1 39076U 13005E   25036.55909502  .00000033  00000+0  76490-3 0  9999
2 39076  51.9898 355.9819 0000546 246.9761 113.1048 12.62271074553291
GLOBALSTAR M095         
1 39077U 13005F   25036.90269473 -.00000089  00000+0  82641-4 0  9993
2 39077  51.9827 352.2012 0000373 330.5031  29.5815 12.62265925553196
GLOBALSTAR M087         
1 52888U 22064A   25036.93342669 -.00000091  00000+0  72255-4 0  9998
2 52888  51.9788 133.5143 0000601 116.7105 243.3822 12.62268410128466
